COMMENT,ORIGINATOR,NORAD_CAT_ID,OBJECT_NAME,OBJECT_TYPE,CLASSIFICATION_TYPE,INTLDES,EPOCH,EPOCH_MICROSECONDS,MEAN_MOTION,ECCENTRICITY,INCLINATION,RA_OF_ASC_NODE,ARG_OF_PERICENTER,MEAN_ANOMALY,EPHEMERIS_TYPE,ELEMENT_SET_NO,REV_AT_EPOCH,BSTAR,MEAN_MOTION_DOT,MEAN_MOTION_DDOT,FILE,TLE_LINE0,TLE_LINE1,TLE_LINE2,OBJECT_ID,OBJECT_NUMBER,SEMIMAJOR_AXIS,PERIOD,APOGEE,PERIGEE
"GENERATED VIA SPACETRACK.ORG API","JSPOC","37730","SJ-11-03","PAYLOAD","U","11030A","2016-01-14 11:52:15","136032","14.6049292","0.0009453","98.0887","91.4683","138.7347","221.4577","0","999","24118","5.7461e-05","2.33e-06","0","1980251","0 SJ-11-03","1 37730U 11030A   16014.49461963  .00000233  00000-0  57461-4 0  9994","2 37730  98.0887  91.4683 0009453 138.7347 221.4577 14.60492920241188","2011-030A","37730","7069.719","98.596","698.267","684.901"
"GENERATED VIA SPACETRACK.ORG API","JSPOC","38740","INTELSAT 20","PAYLOAD","U","12043A","2016-01-14 11:52:28","987680","1.00272349","0.0001049","0.0128","49.7852","130.5694","179.6325","0","999","1266","0","-2.9e-07","0","1980378","0 INTELSAT 20","1 38740U 12043A   16014.49477995 -.00000029  00000-0  00000+0 0  9999","2 38740   0.0128  49.7852 0001049 130.5694 179.6325  1.00272349 12668","2012-043A","38740","42164.573","1436.088","35790.861","35782.015"
"GENERATED VIA SPACETRACK.ORG API","JSPOC","9444","SL-8 R/B","ROCKET BODY","U","76098B","2016-01-14 11:52:38","661888","14.37750604","0.0012187","74.0495","173.1525","86.1579","274.0968","0","999","49424","7.1901e-05","1.9e-06","0","1980163","0 SL-8 R/B","1 09444U 76098B   16014.49489192  .00000190  00000-0  71901-4 0  9991","2 09444  74.0495 173.1525 0012187  86.1579 274.0968 14.37750604494247","1976-098B","9444","7144.077","100.156","774.648","757.235"
"GENERATED VIA SPACETRACK.ORG API","JSPOC","23753","SL-6 R/B","ROCKET BODY","U","95072C","2016-01-14 11:52:50","16576","14.2648538","0.0003166","98.8331","335.3616","335.4457","131.8108","0","999","4335","3.6859e-05","4.3e-07","0","1980191","0 SL-6 R/B","1 23753U 95072C   16014.49502334  .00000043  00000-0  36859-4 0  9997","2 23753  98.8331 335.3616 0003166 335.4457 131.8108 14.26485380 43356","1995-072C","23753","7181.639","100.947","805.778","801.231"
"GENERATED VIA SPACETRACK.ORG API","JSPOC","29506","SJ-6D","PAYLOAD","U","06046B","2016-01-14 11:52:59","83392","14.93016122","0.0003809","97.8172","12.1193","85.1584","275.0061","0","999","50200","7.6813e-05","7.42e-06","0","1980215","0 SJ-6D","1 29506U 06046B   16014.49512828  .00000742  00000-0  76813-4 0  9991","2 29506  97.8172  12.1193 0003809  85.1584 275.0061 14.93016122502003","2006-046B","29506","6966.674","96.449","591.192","585.885"
"GENERATED VIA SPACETRACK.ORG API","JSPOC","27618","COSMOS 2396 (GLONASS)","PAYLOAD","U","02060B","2016-01-14 11:53:19","918752","2.1310046","0.0011846","65.1212","83.5555","147.1938","306.6133","0","999","10162","0","-1.1e-07","0","1980141","0 COSMOS 2396 (GLONASS)","1 27618U 02060B   16014.49536943 -.00000011  00000-0  00000+0 0  9999","2 27618  65.1212  83.5555 0011846 147.1938 306.6133  2.13100460101626","2002-060B","27618","25508.147","675.737","19160.229","19099.795"
"GENERATED VIA SPACETRACK.ORG API","JSPOC","3764","ESSA 9 (TOS-G)","PAYLOAD","U","69016A","2016-01-14 11:53:24","847872","12.49833611","0.0050758","101.8725","74.7814","253.3545","220.801","0","999","51269","4.5164e-05","-3.9e-07","0","1980143","0 ESSA 9 (TOS-G)","1 03764U 69016A   16014.49542648 -.00000039  00000-0  45164-4 0  9993","2 03764 101.8725  74.7814 0050758 253.3545 220.8010 12.49833611512693","1969-016A","3764","7843.327","115.215","1505.004","1425.381"
"GENERATED VIA SPACETRACK.ORG API","JSPOC","15055","COSMOS 1574","PAYLOAD","U","84062A","2016-01-14 11:53:42","273888","13.74265908","0.0026394","82.9565","9.2809","220.2857","251.4464","0","999","58287","1.7239e-05","3.1e-07","0","1980193","0 COSMOS 1574","1 15055U 84062A   16014.49562817  .00000031  00000-0  17239-4 0  9990","2 15055  82.9565   9.2809 0026394 220.2857 251.4464 13.74265908582872","1984-062A","15055","7362.432","104.783","1003.729","964.865"
"GENERATED VIA SPACETRACK.ORG API","JSPOC","11267","SL-14 R/B","ROCKET BODY","U","79011B","2016-01-14 11:53:46","504032","14.88700127","0.0017628","82.5248","0.0652","153.0492","207.1645","0","999","99814","2.7753e-05","2.85e-06","0","1980302","0 SL-14 R/B","1 11267U 79011B   16014.49567713  .00000285  00000-0  27753-4 0  9992","2 11267  82.5248   0.0652 0017628 153.0492 207.1645 14.88700127998143","1979-011B","11267","6980.132","96.728","614.302","589.693"
"GENERATED VIA SPACETRACK.ORG API","JSPOC","39242","CZ-4C R/B","ROCKET BODY","U","13046D","2016-01-14 11:53:48","213024","13.69738918","0.0231757","63.4643","66.0216","9.2266","351.2921","0","999","11842","2.9074e-05","-6.5e-07","0","1980157","0 CZ-4C R/B","1 39242U 13046D   16014.49569691 -.00000065  00000-0  29074-4 0  9993","2 39242  63.4643  66.0216 0231757   9.2266 351.2921 13.69738918118423","2013-046D","39242","7378.645","105.129","1171.515","829.505"
"GENERATED VIA SPACETRACK.ORG API","JSPOC","28656","BREEZE-M R/B","ROCKET BODY","U","04008C","2016-01-14 11:53:56","752800","1.97317174","0.6107345","11.9546","177.375","275.7779","16.113","0","999","7912","0","1.21e-06","0","1980168","0 BREEZE-M R/B","1 28656U 04008C   16014.49579575  .00000121  00000-0  00000+0 0  9995","2 28656  11.9546 177.3750 6107345 275.7779  16.1130  1.97317174 79126","2004-008C","28656","26850.883","729.789","36871.509","4073.987"
"GENERATED VIA SPACETRACK.ORG API","JSPOC","29678","COROT","PAYLOAD","U","06063A","2016-01-14 11:54:00","517248","14.43758773","0.0205159","90.0244","13.3541","72.1826","290.1642","0","999","46507","0.00010489","4.79e-06","0","1980209","0 COROT","1 29678U 06063A   16014.49583932  .00000479  00000-0  10489-3 0  9997","2 29678  90.0244  13.3541 0205159  72.1826 290.1642 14.43758773465073","2006-063A","29678","7124.243","99.739","892.268","599.948"
"GENERATED VIA SPACETRACK.ORG API","JSPOC","10288","COSMOS 942","PAYLOAD","U","77079D","2016-01-14 11:54:14","354208","12.42209648","0.0044342","74.0238","250.1953","27.278","40.6478","0","999","74106","2.6504e-05","-1.2e-07","0","1980159","0 COSMOS 942","1 10288U 77079D   16014.49599947 -.00000012  00000-0  26504-4 0  9992","2 10288  74.0238 250.1953 0044342  27.2780  40.6478 12.42209648741068","1977-079D","10288","7875.387","115.922","1532.173","1462.331"
"GENERATED VIA SPACETRACK.ORG API","JSPOC","33313","RAPIDEYE 5","PAYLOAD","U","08040B","2016-01-14 11:54:17","137152","14.79971366","0.0018079","97.8504","99.763","111.8647","248.449","0","999","39845","4.4401e-05","2.85e-06","0","1980230","0 RAPIDEYE 5","1 33313U 08040B   16014.49603168  .00000285  00000-0  44401-4 0  9996","2 33313  97.8504  99.7630 0018079 111.8647 248.4490 14.79971366398458","2008-040B","33313","7007.551","97.299","642.085","616.747"
"GENERATED VIA SPACETRACK.ORG API","JSPOC","39087","AAUSAT3","PAYLOAD","U","13009B","2016-01-14 11:54:30","964608","14.35275418","0.0013291","98.5899","217.0999","44.2264","315.9985","0","999","15096","0.00012458","3.13e-06","0","1980231","0 AAUSAT3","1 39087U 13009B   16014.49619172  .00000313  00000-0  12458-3 0  9991","2 39087  98.5899 217.0999 0013291  44.2264 315.9985 14.35275418150963","2013-009B","39087","7152.288","100.329","783.659","764.647"
"GENERATED VIA SPACETRACK.ORG API","JSPOC","33493","PRISM (HITOMI)","PAYLOAD","U","09002B","2016-01-14 11:54:46","380096","14.94360209","0.0016057","98.2328","227.1753","0.5632","359.5571","0","999","37812","0.00024188","2.544e-05","0","1980201","0 PRISM (HITOMI)","1 33493U 09002B   16014.49637014  .00002544  00000-0  24188-3 0  9990","2 33493  98.2328 227.1753 0016057   0.5632 359.5571 14.94360209378122","2009-002B","33493","6962.496","96.362","595.540","573.181"
"GENERATED VIA SPACETRACK.ORG API","JSPOC","27619","COSMOS 2395 (GLONASS)","PAYLOAD","U","02060C","2016-01-14 11:54:53","457984","2.13103918","0.00088","65.1299","83.6516","271.8031","160.8114","0","999","10160","0","-1.1e-07","0","1980141","0 COSMOS 2395 (GLONASS)","1 27619U 02060C   16014.49645206 -.00000011  00000-0  00000+0 0  9993","2 27619  65.1299  83.6516 0008800 271.8031 160.8114  2.13103918101603","2002-060C","27619","25507.871","675.726","19152.183","19107.289"
"GENERATED VIA SPACETRACK.ORG API","JSPOC","40144","TIANTUO 2","PAYLOAD","U","14053B","2016-01-14 11:55:19","325280","15.3140076","0.0011681","97.3665","94.98","331.9026","156.6757","0","999","7540","9.5746e-05","2.831e-05","0","1980131","0 TIANTUO 2","1 40144U 14053B   16014.49675145  .00002831  00000-0  95746-4 0  9998","2 40144  97.3665  94.9800 0011681 331.9026 156.6757 15.31400760 75402","2014-053B","40144","6849.769","94.031","479.635","463.632"
"GENERATED VIA SPACETRACK.ORG API","JSPOC","35869","UGATUSAT","PAYLOAD","U","09049E","2016-01-14 11:55:30","708480","14.22325464","0.0003782","98.4672","51.5045","210.8909","149.2056","0","999","32829","2.8845e-05","2.2e-07","0","1980250","0 UGATUSAT","1 35869U 09049E   16014.49688320  .00000022  00000-0  28845-4 0  9990","2 35869  98.4672  51.5045 0003782 210.8909 149.2056 14.22325464328292","2009-049E","35869","7195.635","101.242","820.222","814.779"
"GENERATED VIA SPACETRACK.ORG API","JSPOC","32730","BLOCK DM-SL R/B","ROCKET BODY","U","08013B","2016-01-14 11:55:34","710528","2.85131879","0.686361","0.2925","308.7433","117.1549","349.2558","0","999","7086","0.00075722","9.444e-05","0","1980369","0 BLOCK DM-SL R/B","1 32730U 08013B   16014.49692952  .00009444  00000-0  75722-3 0  9992","2 32730   0.2925 308.7433 6863610 117.1549 349.2558  2.85131879 70862","2008-013B","32730","21007.352","505.029","29047.845","210.590"
